GLOBALSTAR M067         
1 32263U 07048A   24117.59927014 -.00000022  00000+0  56025-3 0  9992
2 32263  51.9713 174.8754 0001172 167.3192 357.7656 12.40643233757770
GLOBALSTAR M070         
1 32264U 07048B   24117.55176471 -.00000061  00000+0  23627-3 0  9997
2 32264  51.9756 317.7162 0000507  96.8979 281.5849 12.62290945761055
GLOBALSTAR M066         
1 32265U 07048C   24117.43162641 -.00000029  00000+0  41712-3 0  9998
2 32265  51.9662 180.0680 0000590 150.7061 222.6501 12.62261211763307
GLOBALSTAR M068         
1 32266U 07048D   24117.33603707 -.00000043  00000+0  33487-3 0  9997
2 32266  51.9863 132.9188 0000751 303.8564  69.9751 12.62786474764895
GLOBALSTAR M079         
1 37188U 10054A   24117.29755203 -.00000073  00000+0  17416-3 0  9997
2 37188  52.0051 328.8657 0001025  92.4161  79.7426 12.62269001623805
GLOBALSTAR M074         
1 37189U 10054B   24117.78975875 -.00000077  00000+0  14759-3 0  9992
2 37189  52.0032 326.7552 0000772  92.5234  36.7232 12.62267785624543
GLOBALSTAR M076         
1 37190U 10054C   24117.86960596 -.00000061  00000+0  23761-3 0  9993
2 37190  52.0041 326.6439 0001018 122.4370 250.9393 12.62277509624561
GLOBALSTAR M077         
1 37191U 10054D   24117.63331986 -.00000092  00000+0  66812-4 0  9993
2 37191  52.0068 284.1001 0000734 117.8024 320.1829 12.62272037624545
